{
  "type": "FeatureCollection",
  "features": [
    {
      "type": "Feature",
      "properties": {
        "norad_id": 34446,
        "name": "COSMOS 2251 DEB",
        "group": "cosmos-2251-debris",
        "lat": -73.8875045677621,
        "lon": -51.90219756893476,
        "alt_km": 745.2588432048942,
        "timestamp": "2025-12-27T03:58:44.541265+00:00",
        "meta_object_name": "COSMOS 2251 DEB",
        "meta_object_id": "1993-036SP",
        "meta_epoch": "2025-12-26T18:26:50.872704",
        "meta_mean_motion": 14.49367446,
        "meta_eccentricity": 0.0050443,
        "meta_inclination": 74.0414,
        "meta_ra_of_asc_node": 30.9725,
        "meta_arg_of_pericenter": 165.5811,
        "meta_mean_anomaly": 194.6802,
        "meta_ephemeris_type": 0,
        "meta_classification_type": "U",
        "meta_norad_cat_id": 34446,
        "meta_element_set_no": 999,
        "meta_rev_at_epoch": 88897,
        "meta_bstar": 0.00012144,
        "meta_mean_motion_dot": 4.43e-06,
        "meta_mean_motion_ddot": 0,
        "tle_line1": "1 34446U 93036SP  25360.76864436  .00000443  00000+0  12144-3 0  9997",
        "tle_line2": "2 34446  74.0414  30.9725 0050443 165.5811 194.6802 14.49367446888970"
      },
      "geometry": {
        "type": "Point",
        "coordinates": [
          -51.90219756893476,
          -73.8875045677621
        ]
      }
    },
    {
      "type": "Feature",
      "properties": {
        "norad_id": 34449,
        "name": "COSMOS 2251 DEB",
        "group": "cosmos-2251-debris",
        "lat": -71.10632826150889,
        "lon": -15.336841804765887,
        "alt_km": 601.6746582548249,
        "timestamp": "2025-12-27T03:58:44.541274+00:00",
        "meta_object_name": "COSMOS 2251 DEB",
        "meta_object_id": "1993-036SS",
        "meta_epoch": "2025-12-26T12:50:59.003232",
        "meta_mean_motion": 14.95603421,
        "meta_eccentricity": 0.0022706,
        "meta_inclination": 74.0324,
        "meta_ra_of_asc_node": 42.7181,
        "meta_arg_of_pericenter": 76.9534,
        "meta_mean_anomaly": 50.6798,
        "meta_ephemeris_type": 0,
        "meta_classification_type": "U",
        "meta_norad_cat_id": 34449,
        "meta_element_set_no": 999,
        "meta_rev_at_epoch": 88899,
        "meta_bstar": 0.002431,
        "meta_mean_motion_dot": 0.00027206,
        "meta_mean_motion_ddot": 0,
        "tle_line1": "1 34449U 93036SS  25360.53540513  .00027206  00000+0  24310-2 0  9995",
        "tle_line2": "2 34449  74.0324  42.7181 0022706  76.9534  50.6798 14.95603421888992"
      },
      "geometry": {
        "type": "Point",
        "coordinates": [
          -15.336841804765887,
          -71.10632826150889
        ]
      }
    },
    {
      "type": "Feature",
      "properties": {
        "norad_id": 34451,
        "name": "COSMOS 2251 DEB",
        "group": "cosmos-2251-debris",
        "lat": -65.97835851317451,
        "lon": 18.81837413168009,
        "alt_km": 598.0222611906065,
        "timestamp": "2025-12-27T03:58:44.541283+00:00",
        "meta_object_name": "COSMOS 2251 DEB",
        "meta_object_id": "1993-036SU",
        "meta_epoch": "2025-12-26T13:51:31.737024",
        "meta_mean_motion": 14.96355196,
        "meta_eccentricity": 0.0023986,
        "meta_inclination": 74.0457,
        "meta_ra_of_asc_node": 59.9389,
        "meta_arg_of_pericenter": 71.3089,
        "meta_mean_anomaly": 289.0697,
        "meta_ephemeris_type": 0,
        "meta_classification_type": "U",
        "meta_norad_cat_id": 34451,
        "meta_element_set_no": 999,
        "meta_rev_at_epoch": 88842,
        "meta_bstar": 0.0026962,
        "meta_mean_motion_dot": 0.000308,
        "meta_mean_motion_ddot": 0,
        "tle_line1": "1 34451U 93036SU  25360.57745066  .00030800  00000+0  26962-2 0  9991",
        "tle_line2": "2 34451  74.0457  59.9389 0023986  71.3089 289.0697 14.96355196888425"
      },
      "geometry": {
        "type": "Point",
        "coordinates": [
          18.81837413168009,
          -65.97835851317451
        ]
      }
    },
    {
      "type": "Feature",
      "properties": {
        "norad_id": 34452,
        "name": "COSMOS 2251 DEB",
        "group": "cosmos-2251-debris",
        "lat": 54.12568062297744,
        "lon": -50.37230813381155,
        "alt_km": 534.3912340530233,
        "timestamp": "2025-12-27T03:58:44.541293+00:00",
        "meta_object_name": "COSMOS 2251 DEB",
        "meta_object_id": "1993-036SV",
        "meta_epoch": "2025-12-26T11:48:18.165024",
        "meta_mean_motion": 15.12078012,
        "meta_eccentricity": 0.0063908,
        "meta_inclination": 74.0318,
        "meta_ra_of_asc_node": 154.3477,
        "meta_arg_of_pericenter": 227.5925,
        "meta_mean_anomaly": 188.7163,
        "meta_ephemeris_type": 0,
        "meta_classification_type": "U",
        "meta_norad_cat_id": 34452,
        "meta_element_set_no": 999,
        "meta_rev_at_epoch": 90870,
        "meta_bstar": 0.0010171,
        "meta_mean_motion_dot": 0.00018397,
        "meta_mean_motion_ddot": 0,
        "tle_line1": "1 34452U 93036SV  25360.49187691  .00018397  00000+0  10171-2 0  9999",
        "tle_line2": "2 34452  74.0318 154.3477 0063908 227.5925 188.7163 15.12078012908707"
      },
      "geometry": {
        "type": "Point",
        "coordinates": [
          -50.37230813381155,
          54.12568062297744
        ]
      }
    },
    {
      "type": "Feature",
      "properties": {
        "norad_id": 34454,
        "name": "COSMOS 2251 DEB",
        "group": "cosmos-2251-debris",
        "lat": -31.601775775481237,
        "lon": -119.05818323009264,
        "alt_km": 743.3696573454572,
        "timestamp": "2025-12-27T03:58:44.541302+00:00",
        "meta_object_name": "COSMOS 2251 DEB",
        "meta_object_id": "1993-036SX",
        "meta_epoch": "2025-12-26T18:07:08.791968",
        "meta_mean_motion": 14.38829634,
        "meta_eccentricity": 0.0036014,
        "meta_inclination": 74.0582,
        "meta_ra_of_asc_node": 251.8267,
        "meta_arg_of_pericenter": 311.5925,
        "meta_mean_anomaly": 48.2144,
        "meta_ephemeris_type": 0,
        "meta_classification_type": "U",
        "meta_norad_cat_id": 34454,
        "meta_element_set_no": 999,
        "meta_rev_at_epoch": 88269,
        "meta_bstar": 0.00022337,
        "meta_mean_motion_dot": 6.66e-06,
        "meta_mean_motion_ddot": 0,
        "tle_line1": "1 34454U 93036SX  25360.75496287  .00000666  00000+0  22337-3 0  9992",
        "tle_line2": "2 34454  74.0582 251.8267 0036014 311.5925  48.2144 14.38829634882693"
      },
      "geometry": {
        "type": "Point",
        "coordinates": [
          -119.05818323009264,
          -31.601775775481237
        ]
      }
    },
    {
      "type": "Feature",
      "properties": {
        "norad_id": 34459,
        "name": "COSMOS 2251 DEB",
        "group": "cosmos-2251-debris",
        "lat": 41.262544220676475,
        "lon": 34.61117004648347,
        "alt_km": 1018.3868277654528,
        "timestamp": "2025-12-27T03:58:44.541311+00:00",
        "meta_object_name": "COSMOS 2251 DEB",
        "meta_object_id": "1993-036TC",
        "meta_epoch": "2025-12-26T08:27:30.265632",
        "meta_mean_motion": 14.005194,
        "meta_eccentricity": 0.0192136,
        "meta_inclination": 74.0778,
        "meta_ra_of_asc_node": 230.5206,
        "meta_arg_of_pericenter": 297.2174,
        "meta_mean_anomaly": 60.9494,
        "meta_ephemeris_type": 0,
        "meta_classification_type": "U",
        "meta_norad_cat_id": 34459,
        "meta_element_set_no": 999,
        "meta_rev_at_epoch": 85902,
        "meta_bstar": 0.00034258,
        "meta_mean_motion_dot": 5.72e-06,
        "meta_mean_motion_ddot": 0,
        "tle_line1": "1 34459U 93036TC  25360.35243363  .00000572  00000+0  34258-3 0  9999",
        "tle_line2": "2 34459  74.0778 230.5206 0192136 297.2174  60.9494 14.00519400859022"
      },
      "geometry": {
        "type": "Point",
        "coordinates": [
          34.61117004648347,
          41.262544220676475
        ]
      }
    },
    {
      "type": "Feature",
      "properties": {
        "norad_id": 34464,
        "name": "COSMOS 2251 DEB",
        "group": "cosmos-2251-debris",
        "lat": 52.26208342901909,
        "lon": 69.34931478514216,
        "alt_km": 482.421696280564,
        "timestamp": "2025-12-27T03:58:44.541320+00:00",
        "meta_object_name": "COSMOS 2251 DEB",
        "meta_object_id": "1993-036TH",
        "meta_epoch": "2025-12-26T13:36:18.094176",
        "meta_mean_motion": 15.29047628,
        "meta_eccentricity": 0.0013527,
        "meta_inclination": 73.9884,
        "meta_ra_of_asc_node": 48.8455,
        "meta_arg_of_pericenter": 231.1496,
        "meta_mean_anomaly": 128.8499,
        "meta_ephemeris_type": 0,
        "meta_classification_type": "U",
        "meta_norad_cat_id": 34464,
        "meta_element_set_no": 999,
        "meta_rev_at_epoch": 90051,
        "meta_bstar": 0.0026331,
        "meta_mean_motion_dot": 0.00075197,
        "meta_mean_motion_ddot": 0,
        "tle_line1": "1 34464U 93036TH  25360.56687609  .00075197  00000+0  26331-2 0  9990",
        "tle_line2": "2 34464  73.9884  48.8455 0013527 231.1496 128.8499 15.29047628900510"
      },
      "geometry": {
        "type": "Point",
        "coordinates": [
          69.34931478514216,
          52.26208342901909
        ]
      }
    }
  ]
}